[{"OBJECT_NAME":"STARLINK-30084","OBJECT_ID":"2023-079C","EPOCH":"2026-03-09T22:00:01.999584","MEAN_MOTION":15.23505566,"ECCENTRICITY":0.00011469,"INCLINATION":43.0023,"RA_OF_ASC_NODE":104.9996,"ARG_OF_PERICENTER":274.1304,"MEAN_ANOMALY":27.2312,"EPHEMERIS_TYPE":0,"CLASSIFICATION_TYPE":"U","NORAD_CAT_ID":56825,"ELEMENT_SET_NO":999,"REV_AT_EPOCH":578,"BSTAR":0.031721463,"MEAN_MOTION_DOT":0.00827712,"MEAN_MOTION_DDOT":0},{"OBJECT_NAME":"FLOCK 4BE-17","OBJECT_ID":"2024-149AA","EPOCH":"2026-03-09T18:14:06.789984","MEAN_MOTION":15.36654618,"ECCENTRICITY":0.00023553,"INCLINATION":97.381,"RA_OF_ASC_NODE":151.5565,"ARG_OF_PERICENTER":232.0178,"MEAN_ANOMALY":128.0854,"EPHEMERIS_TYPE":0,"CLASSIFICATION_TYPE":"U","NORAD_CAT_ID":60492,"ELEMENT_SET_NO":999,"REV_AT_EPOCH":8697,"BSTAR":0.00051180052,"MEAN_MOTION_DOT":0.00018261,"MEAN_MOTION_DDOT":0}]
